ZACUBE-2                
1 43907U 18111AH  22316.50510509  .00016388  00000+0  55672-3 0  9997
2 43907  97.1660 197.5753 0016799 274.7277 206.5251 15.30414876215917
LUME 1                  
1 43908U 18111AJ  22316.21685791  .00018584  00000+0  56876-3 0  9999
2 43908  97.1678 199.4629 0014651 266.1592  93.7976 15.33771717216015
AOBA VELOX-IV           
1 43940U 19003J   22315.73867731  .00049853  00000+0  98736-3 0  9992
2 43940  97.1107 347.9038 0012599 338.0675  22.0035 15.46828460212819
MOVE-IIB                
1 44398U 19038N   22315.92958446  .00024117  00000+0  10257-2 0  9990
2 44398  97.6457 287.1166 0018698 344.6976  15.3691 15.22860461185442
SONATE                  
1 44400U 19038Q   22315.91706342  .00009917  00000+0  51280-3 0  9992
2 44400  97.6566 285.3639 0022344 350.2297   9.8498 15.16250114185268
LUCKY-7                 
1 44406U 19038W   22316.14310714  .00011259  00000+0  56144-3 0  9994
2 44406  97.6580 286.2962 0021254 346.8161  13.2513 15.17510907185345
BEESAT 9                
1 44412U 19038AC  22316.17694205  .00016031  00000+0  75018-3 0  9998
2 44412  97.6547 286.9233 0018637 351.4672   8.6243 15.19677909185103
JAISAT-1                
1 44419U 19038F   22315.91942040  .00014984  00000+0  69280-3 0  9998
2 44419  97.6547 287.6126 0017527 349.7283  10.3591 15.20128157185434
DUCHIFAT-3              
1 44854U 19089C   22316.35194413  .00007422  00000+0  55649-3 0  9992
2 44854  36.9648 302.8985 0008142 335.4887 136.3626 15.02286429160172
EYESAT-NANO             
1 44877U 19092E   22316.44845597  .00019230  00000+0  74665-3 0  9996
2 44877  97.4611 140.1140 0010267 192.0164 168.0831 15.26080139160908
ORBITAL FACTORY 2 (OF-2)
1 45113U 19071C   22316.51836497  .00059000  00000+0  83130-3 0  9990
2 45113  51.6365  46.4043 0010763 352.7833   7.3001 15.55986181156339
M2 PATHFINDER           
1 45727U 20037E   22316.07753937  .00001735  00000+0  17446-3 0  9992
2 45727  97.7418 128.9767 0011388 267.1619  92.8287 14.92469156128842
NETSAT-4                
1 46504U 20068U   22315.82718097  .00005531  00000+0  39993-3 0  9999
2 46504  97.7362 255.4983 0011482 176.7540 183.3762 15.04403100116193
NETSAT-3                
1 46505U 20068V   22315.78043128  .00006083  00000+0  43994-3 0  9990
2 46505  97.7347 255.3434 0010581 188.0263 172.0794 15.04358250116199
NETSAT-1                
1 46506U 20068W   22315.80246091  .00004788  00000+0  34815-3 0  9990
2 46506  97.7362 255.2832 0007547 196.0770 164.0218 15.04291945116197
NETSAT-2                
1 46507U 20068X   22315.81352515  .00005004  00000+0  36363-3 0  9993
2 46507  97.7353 255.2847 0007074 200.3797 159.7148 15.04296004116146
SAI-1 NANOCONNECT-2     
1 47701U 21015C   22315.76358802  .00020107  00000+0  66692-3 0  9991
2 47701  97.4111  32.2073 0009133 293.2737  66.7543 15.31247926 94723
WILDTRACKCUBE-SIMBA     
1 47941U 21022K   22316.58018767  .00007724  00000+0  49767-3 0  9993
2 47941  97.5150 212.9005 0020879   5.4567  78.7922 15.08425274 90312
BEESAT-6                
1 47957U 21022AB  22316.56811523  .00014409  00000+0  86575-3 0  9995
2 47957  97.5082 213.3239 0019302   2.4545 117.9131 15.10832152 90148
SMOG-1                  
1 47964U 21022AJ  22316.25572473  .00013616  00000+0  78472-3 0  9993
2 47964  97.5151 214.4116 0017704 355.9451   4.1633 15.12377649 89201
MMSATS-1                
1 47976U 98067SJ  22316.45645613  .00055499  00000+0  48262-3 0  9997
2 47976  51.6371 297.5840 0003349  67.9313  70.3720 15.68494129 93405
BCCSAT-1                
1 48041U 21022AK  22316.13293257  .00011881  00000+0  70696-3 0  9999
2 48041  97.5150 213.7137 0014560 356.0573   4.0540 15.11300711 89128
BEESAT-5                
1 48083U 21022AM  22316.21245764  .00017284  00000+0  10243-2 0  9998
2 48083  97.5118 213.0066 0020152   5.2395 146.2498 15.11277215 89225
BEESAT-7                
1 48084U 21022AN  22315.94636780  .00015673  00000+0  93605-3 0  9994
2 48084  97.5117 212.7358 0020220   7.2191  49.8661 15.11017327 88772
BEESAT-8                
1 48085U 21022AP  22316.50606802  .00011170  00000+0  67752-3 0  9992
2 48085  97.5118 213.2505 0020395   4.4559 119.7410 15.10532761 89418
LEDSAT                  
1 49069U 21073D   22316.17001732  .00006246  00000+0  38520-3 0  9994
2 49069  97.5098  26.1264 0027138 145.7885 214.5100 15.09977883 68114
HSU-SAT1                
1 53462U 98067UB  22316.08488653  .00068676  00000+0  84209-3 0  9994
2 53462  51.6382 320.8973 0009301  87.0167 273.1890 15.59646804 14273
FUTABA                  
1 53463U 98067UC  22316.42561388  .00093420  00000+0  10528-2 0  9997
2 53463  51.6370 318.6695 0009840  85.8929 274.3189 15.61708480 14330
TUMNANOSAT              
1 53464U 98067UD  22316.38266178  .00116676  00000+0  12088-2 0  9994
2 53464  51.6366 318.3818 0010486  83.8372 276.3817 15.63753887 14331
BEIJING 1               
1 28890U 05043A   22316.35673773  .00000381  00000+0  86079-4 0  9999
2 28890  98.1371  76.1923 0016391  73.4609 286.8398 14.61540180908747
HJ-1A                   
1 33320U 08041A   22316.35524132  .00000748  00000+0  11003-3 0  9999
2 33320  97.6650 342.3920 0022397 109.4577 250.9049 14.77984373764239
HJ-1B                   
1 33321U 08041B   22316.37420052  .00001611  00000+0  22771-3 0  9992
2 33321  97.6811 346.2718 0035338 127.6448 232.7971 14.78019082764234
YAOGAN 4                
1 33446U 08061A   22316.42500361  .00000975  00000+0  14326-3 0  9999
2 33446  97.8303 252.1405 0016749  20.1842 340.0028 14.77572565751442
DEIMOS-1                
1 35681U 09041A   22316.43790380  .00000666  00000+0  11299-3 0  9997
2 35681  97.6962 159.8055 0002883  95.9118 264.2406 14.72171288713546
UK-DMC 2                
1 35683U 09041C   22316.38981805  .00001049  00000+0  17603-3 0  9998
2 35683  97.7085 121.5785 0001584  98.9303 261.2084 14.71590492713266
RISAT 1                 
1 38248U 12017A   22316.53769054  .00003987  00000+0  22967-3 0  9994
2 38248  97.5507 326.3507 0005709 103.2010 256.9858 15.12972179581229
DMC3-FM1                
1 40715U 15032A   22316.37935340  .00000934  00000+0  12341-3 0  9995
2 40715  97.8247 200.1237 0007062  46.5640 313.6137 14.82275533395204
DMC3-FM2                
1 40716U 15032B   22316.33509787  .00000959  00000+0  12654-3 0  9998
2 40716  97.8292 200.7990 0009081  46.7919 313.4038 14.82268882395208
DMC3-FM3                
1 40717U 15032C   22316.42295112 -.00005152  00000+0 -63928-3 0  9995
2 40717  97.8334 201.8662 0011084  42.3577 317.8547 14.82234057395213
NOAA 15                 
1 25338U 98030A   22316.59335814  .00000179  00000+0  92974-4 0  9994
2 25338  98.6310 344.1045 0009682 221.1624 138.8826 14.26195328274385
DMSP 5D-3 F15 (USA 147) 
1 25991U 99067A   22316.60091348  .00000187  00000+0  11706-3 0  9995
2 25991  99.0637 310.7916 0010884 125.8013 344.3023 14.16597151184765
DMSP 5D-3 F16 (USA 172) 
1 28054U 03048A   22316.59897397  .00000139  00000+0  97843-4 0  9992
2 28054  99.0009 308.2604 0006375 258.2475 212.2123 14.13706133983951
NOAA 18                 
1 28654U 05018A   22316.50793036  .00000190  00000+0  12623-3 0  9992
2 28654  98.9352  26.7250 0013276 272.7994  87.1658 14.12805827900972
METEOSAT-9 (MSG-2)      
1 28912U 05049B   22315.42549472  .00000136  00000+0  00000+0 0  9998
2 28912   6.3491  65.3089 0001636 177.9296   6.2456  1.00267413 61863
EWS-G1 (GOES 13)        
1 29155U 06018A   22316.54980008  .00000048  00000+0  00000+0 0  9995
2 29155   0.9495  94.2181 0006939 139.2286  77.4764  1.00271487 60342
DMSP 5D-3 F17 (USA 191) 
1 29522U 06050A   22316.59285483  .00000148  00000+0  10054-3 0  9994
2 29522  98.7633 328.8530 0009613 193.9774 166.1135 14.14136275826841
FENGYUN 3A              
1 32958U 08026A   22316.49996236  .00000154  00000+0  94566-4 0  9998
2 32958  98.5242 273.2190 0008078 321.6664  38.3937 14.18760455749323
FENGYUN 2E              
1 33463U 08066A   22315.79493948 -.00000194  00000+0  00000+0 0  9998
2 33463   6.2322  64.4242 0000921 249.6648 109.3325  1.00281135 50918
NOAA 19                 
1 33591U 09005A   22316.59701140  .00000205  00000+0  13572-3 0  9993
2 33591  99.1319 353.7395 0014654 129.9294 230.3167 14.12636755709363
GOES 14                 
1 35491U 09033A   22316.44738366 -.00000084  00000+0  00000+0 0  9993
2 35491   0.2483 264.8013 0018454 316.6108 246.9991  1.00272896 48997
METEOR-M 1              
1 35865U 09049A   22316.47410475  .00000148  00000+0  85759-4 0  9995
2 35865  98.5498 282.3094 0002875 134.4781 225.6633 14.22377724682721
DMSP 5D-3 F18 (USA 210) 
1 35951U 09057A   22316.55472461  .00000227  00000+0  14349-3 0  9996
2 35951  98.7414 292.4191 0011788  29.7922 330.3920 14.13586719674037
GOES 15                 
1 36411U 10008A   22316.57817365  .00000064  00000+0  00000+0 0  9998
2 36411   0.2065 280.4690 0003665 276.4706 294.5743  1.00275923 46497
COMS 1                  
1 36744U 10032A   22315.85118865 -.00000334  00000+0  00000+0 0  9994
2 36744   1.4521  91.8108 0001136 145.9538 247.8073  1.00273776 45487
FENGYUN 3B              
1 37214U 10059A   22316.28432163  .00000048  00000+0  49258-4 0  9998
2 37214  99.0938 324.8963 0021342 299.6980  60.2073 14.14273886621851
SUOMI NPP               
1 37849U 11061A   22316.59536392  .00000109  00000+0  72471-4 0  9990
2 37849  98.7459 253.1612 0001000  88.7023  99.1756 14.19560201572206
FENGYUN 2F              
1 38049U 12002A   22316.22696699 -.00000348  00000+0  00000+0 0  9996
2 38049   4.1514  78.5315 0002352 264.9472 261.6966  1.00281030 39728
METEOSAT-10 (MSG-3)     
1 38552U 12035B   22315.84979851  .00000072  00000+0  00000+0 0  9995
2 38552   1.7605  48.5445 0001861 148.5229 169.4916  1.00268108 37687
METOP-B                 
1 38771U 12049A   22316.60254420  .00000143  00000+0  85522-4 0  9992
2 38771  98.7114  14.2475 0000711  57.6062 104.1609 14.21493101526770
